{"type": "FeatureCollection", "features": [ {"type": "Feature", "properties": {"norad_id": 66633, "name": "STARLINK-35948", "group": "last-30-days", "lat": 25.37997520600172, "lon": 4.954160395174759, "alt_km": 365.04644985393134, "timestamp": "2025-12-08T21:31:03.448421+00:00", "meta": {"OBJECT_NAME": "STARLINK-35948", "OBJECT_ID": "2025-271S", "EPOCH": "2025-12-08T14:00:01.999872", "MEAN_MOTION": 15.67982344, "ECCENTRICITY": 0.00011137, "INCLINATION": 53.1594, "RA_OF_ASC_NODE": 207.3285, "ARG_OF_PERICENTER": 108.4311, "MEAN_ANOMALY": 70.8214, "EPHEMERIS_TYPE": 0, "CLASSIFICATION_TYPE": "U", "NORAD_CAT_ID": 66633, "ELEMENT_SET_NO": 999, "REV_AT_EPOCH": 357, "BSTAR": -0.019183523, "MEAN_MOTION_DOT": -0.01917964, "MEAN_MOTION_DDOT": 0}, "tle": {"line1": "1 66633U 25271S   25342.58335648 -.01917964  00000+0 -19184-1 0  9991", "line2": "2 66633  53.1594 207.3285 0001113 108.4311  70.8214 15.67982344  3570"}}, "geometry": {"type": "Point", "coordinates": [4.954160395174759, 25.37997520600172]}}, {"type": "Feature", "properties": {"norad_id": 66634, "name": "STARLINK-35967", "group": "last-30-days", "lat": 23.937956532827716, "lon": 6.343899899311303, "alt_km": 365.23992143487067, "timestamp": "2025-12-08T21:31:03.448452+00:00", "meta": {"OBJECT_NAME": "STARLINK-35967", "OBJECT_ID": "2025-271T", "EPOCH": "2025-12-08T14:00:01.999872", "MEAN_MOTION": 15.67983878, "ECCENTRICITY": 0.00011763, "INCLINATION": 53.1592, "RA_OF_ASC_NODE": 207.324, "ARG_OF_PERICENTER": 111.4409, "MEAN_ANOMALY": 69.7281, "EPHEMERIS_TYPE": 0, "CLASSIFICATION_TYPE": "U", "NORAD_CAT_ID": 66634, "ELEMENT_SET_NO": 999, "REV_AT_EPOCH": 350, "BSTAR": -0.019207106, "MEAN_MOTION_DOT": -0.01920203, "MEAN_MOTION_DDOT": 0}, "tle": {"line1": "1 66634U 25271T   25342.58335648 -.01920203  00000+0 -19207-1 0  9998", "line2": "2 66634  53.1592 207.3240 0001176 111.4409  69.7281 15.67983878  3508"}}, "geometry": {"type": "Point", "coordinates": [6.343899899311303, 23.937956532827716]}}, {"type": "Feature", "properties": {"norad_id": 66635, "name": "STARLINK-35955", "group": "last-30-days", "lat": 22.484120365805637, "lon": 7.703172763185888, "alt_km": 365.5035941171527, "timestamp": "2025-12-08T21:31:03.448464+00:00", "meta": {"OBJECT_NAME": "STARLINK-35955", "OBJECT_ID": "2025-271U", "EPOCH": "2025-12-08T14:00:01.999872", "MEAN_MOTION": 15.67988896, "ECCENTRICITY": 0.00011854, "INCLINATION": 53.1593, "RA_OF_ASC_NODE": 207.3202, "ARG_OF_PERICENTER": 109.4767, "MEAN_ANOMALY": 73.6056, "EPHEMERIS_TYPE": 0, "CLASSIFICATION_TYPE": "U", "NORAD_CAT_ID": 66635, "ELEMENT_SET_NO": 999, "REV_AT_EPOCH": 357, "BSTAR": -0.01926569, "MEAN_MOTION_DOT": -0.01925745, "MEAN_MOTION_DDOT": 0}, "tle": {"line1": "1 66635U 25271U   25342.58335648 -.01925745  00000+0 -19266-1 0  9990", "line2": "2 66635  53.1593 207.3202 0001185 109.4767  73.6056 15.67988896  3578"}}, "geometry": {"type": "Point", "coordinates": [7.703172763185888, 22.484120365805637]}}, {"type": "Feature", "properties": {"norad_id": 66636, "name": "STARLINK-35968", "group": "last-30-days", "lat": 21.0169836667802, "lon": 9.035476154674079, "alt_km": 365.7787271065863, "timestamp": "2025-12-08T21:31:03.448475+00:00", "meta": {"OBJECT_NAME": "STARLINK-35968", "OBJECT_ID": "2025-271V", "EPOCH": "2025-12-08T14:00:01.999872", "MEAN_MOTION": 15.67985017, "ECCENTRICITY": 0.0001233, "INCLINATION": 53.1594, "RA_OF_ASC_NODE": 207.316, "ARG_OF_PERICENTER": 105.6198, "MEAN_ANOMALY": 79.3847, "EPHEMERIS_TYPE": 0, "CLASSIFICATION_TYPE": "U", "NORAD_CAT_ID": 66636, "ELEMENT_SET_NO": 999, "REV_AT_EPOCH": 357, "BSTAR": -0.019243573, "MEAN_MOTION_DOT": -0.0192355, "MEAN_MOTION_DDOT": 0}, "tle": {"line1": "1 66636U 25271V   25342.58335648 -.01923550  00000+0 -19244-1 0  9999", "line2": "2 66636  53.1594 207.3160 0001233 105.6198  79.3847 15.67985017  3576"}}, "geometry": {"type": "Point", "coordinates": [9.035476154674079, 21.0169836667802]}}, {"type": "Feature", "properties": {"norad_id": 66637, "name": "STARLINK-35953", "group": "last-30-days", "lat": 19.542831330586818, "lon": 10.33882737240624, "alt_km": 366.05422048945, "timestamp": "2025-12-08T21:31:03.448487+00:00", "meta": {"OBJECT_NAME": "STARLINK-35953", "OBJECT_ID": "2025-271W", "EPOCH": "2025-12-08T14:00:01.999872", "MEAN_MOTION": 15.67986887, "ECCENTRICITY": 0.00011508, "INCLINATION": 53.1592, "RA_OF_ASC_NODE": 207.312, "ARG_OF_PERICENTER": 107.8498, "MEAN_ANOMALY": 79.0702, "EPHEMERIS_TYPE": 0, "CLASSIFICATION_TYPE": "U", "NORAD_CAT_ID": 66637, "ELEMENT_SET_NO": 999, "REV_AT_EPOCH": 357, "BSTAR": -0.019270838, "MEAN_MOTION_DOT": -0.01926035, "MEAN_MOTION_DDOT": 0}, "tle": {"line1": "1 66637U 25271W   25342.58335648 -.01926035  00000+0 -19271-1 0  9991", "line2": "2 66637  53.1592 207.3120 0001150 107.8498  79.0702 15.67986887  3579"}}, "geometry": {"type": "Point", "coordinates": [10.33882737240624, 19.542831330586818]}}, {"type": "Feature", "properties": {"norad_id": 66638, "name": "STARLINK-35972", "group": "last-30-days", "lat": 18.060358812799045, "lon": 11.618446293956865, "alt_km": 366.30803548423046, "timestamp": "2025-12-08T21:31:03.448497+00:00", "meta": {"OBJECT_NAME": "STARLINK-35972", "OBJECT_ID": "2025-271X", "EPOCH": "2025-12-08T14:00:01.999872", "MEAN_MOTION": 15.67983713, "ECCENTRICITY": 0.00011179, "INCLINATION": 53.1593, "RA_OF_ASC_NODE": 207.3086, "ARG_OF_PERICENTER": 109.3226, "MEAN_ANOMALY": 79.5134, "EPHEMERIS_TYPE": 0, "CLASSIFICATION_TYPE": "U", "NORAD_CAT_ID": 66638, "ELEMENT_SET_NO": 999, "REV_AT_EPOCH": 357, "BSTAR": -0.019204994, "MEAN_MOTION_DOT": -0.01919963, "MEAN_MOTION_DDOT": 0}, "tle": {"line1": "1 66638U 25271X   25342.58335648 -.01919963  00000+0 -19205-1 0  9991", "line2": "2 66638  53.1593 207.3086 0001117 109.3226  79.5134 15.67983713  3570"}}, "geometry": {"type": "Point", "coordinates": [11.618446293956865, 18.060358812799045]}}, {"type": "Feature", "properties": {"norad_id": 66639, "name": "STARLINK-35908", "group": "last-30-days", "lat": 16.566737305957414, "lon": 12.877783983990279, "alt_km": 366.57778935668375, "timestamp": "2025-12-08T21:31:03.448507+00:00", "meta": {"OBJECT_NAME": "STARLINK-35908", "OBJECT_ID": "2025-271Y", "EPOCH": "2025-12-08T14:00:01.999872", "MEAN_MOTION": 15.67985349, "ECCENTRICITY": 0.0001122, "INCLINATION": 53.1592, "RA_OF_ASC_NODE": 207.3042, "ARG_OF_PERICENTER": 107.8654, "MEAN_ANOMALY": 82.8882, "EPHEMERIS_TYPE": 0, "CLASSIFICATION_TYPE": "U", "NORAD_CAT_ID": 66639, "ELEMENT_SET_NO": 999, "REV_AT_EPOCH": 357, "BSTAR": -0.01924144, "MEAN_MOTION_DOT": -0.01923306, "MEAN_MOTION_DDOT": 0}, "tle": {"line1": "1 66639U 25271Y   25342.58335648 -.01923306  00000+0 -19241-1 0  9998", "line2": "2 66639  53.1592 207.3042 0001122 107.8654  82.8882 15.67985349  3570"}}, "geometry": {"type": "Point", "coordinates": [12.877783983990279, 16.566737305957414]}}, {"type": "Feature", "properties": {"norad_id": 66640, "name": "STARLINK-35921", "group": "last-30-days", "lat": 15.067435525644434, "lon": 14.11698775483894, "alt_km": 366.80097140956786, "timestamp": "2025-12-08T21:31:03.448517+00:00", "meta": {"OBJECT_NAME": "STARLINK-35921", "OBJECT_ID": "2025-271Z", "EPOCH": "2025-12-08T14:00:01.999872", "MEAN_MOTION": 15.67979778, "ECCENTRICITY": 0.0001138, "INCLINATION": 53.1592, "RA_OF_ASC_NODE": 207.3006, "ARG_OF_PERICENTER": 110.2995, "MEAN_ANOMALY": 82.3731, "EPHEMERIS_TYPE": 0, "CLASSIFICATION_TYPE": "U", "NORAD_CAT_ID": 66640, "ELEMENT_SET_NO": 999, "REV_AT_EPOCH": 357, "BSTAR": -0.019154955, "MEAN_MOTION_DOT": -0.01915272, "MEAN_MOTION_DDOT": 0}, "tle": {"line1": "1 66640U 25271Z   25342.58335648 -.01915272  00000+0 -19155-1 0  9997", "line2": "2 66640  53.1592 207.3006 0001138 110.2995  82.3731 15.67979778  3572"}}, "geometry": {"type": "Point", "coordinates": [14.11698775483894, 15.067435525644434]}}, {"type": "Feature", "properties": {"norad_id": 66641, "name": "STARLINK-35923", "group": "last-30-days", "lat": 9.009743912805629, "lon": 18.917215961518206, "alt_km": 367.70414782390435, "timestamp": "2025-12-08T21:31:03.448530+00:00", "meta": {"OBJECT_NAME": "STARLINK-35923", "OBJECT_ID": "2025-271AA", "EPOCH": "2025-12-08T14:00:01.999872", "MEAN_MOTION": 15.67983482, "ECCENTRICITY": 0.00012007, "INCLINATION": 53.1593, "RA_OF_ASC_NODE": 207.2836, "ARG_OF_PERICENTER": 117.7197, "MEAN_ANOMALY": 82.6179, "EPHEMERIS_TYPE": 0, "CLASSIFICATION_TYPE": "U", "NORAD_CAT_ID": 66641, "ELEMENT_SET_NO": 999, "REV_AT_EPOCH": 357, "BSTAR": -0.019203745, "MEAN_MOTION_DOT": -0.01919895, "MEAN_MOTION_DDOT": 0}, "tle": {"line1": "1 66641U 25271AA  25342.58335648 -.01919895  00000+0 -19204-1 0  9998", "line2": "2 66641  53.1593 207.2836 0001200 117.7197  82.6179 15.67983482  3576"}}, "geometry": {"type": "Point", "coordinates": [18.917215961518206, 9.009743912805629]}}, {"type": "Feature", "properties": {"norad_id": 66642, "name": "STARLINK-35926", "group": "last-30-days", "lat": 10.528485361312594, "lon": 17.73962787972215, "alt_km": 367.63253689483645, "timestamp": "2025-12-08T21:31:03.448546+00:00", "meta": {"OBJECT_NAME": "STARLINK-35926", "OBJECT_ID": "2025-271AB", "EPOCH": "2025-12-08T14:00:01.999872", "MEAN_MOTION": 15.67984476, "ECCENTRICITY": 0.0001212, "INCLINATION": 53.1594, "RA_OF_ASC_NODE": 207.2884, "ARG_OF_PERICENTER": 101.4759, "MEAN_ANOMALY": 96.9472, "EPHEMERIS_TYPE": 0, "CLASSIFICATION_TYPE": "U", "NORAD_CAT_ID": 66642, "ELEMENT_SET_NO": 999, "REV_AT_EPOCH": 333, "BSTAR": -0.01923933, "MEAN_MOTION_DOT": -0.01923122, "MEAN_MOTION_DDOT": 0}, "tle": {"line1": "1 66642U 25271AB  25342.58335648 -.01923122  00000+0 -19239-1 0  9995", "line2": "2 66642  53.1594 207.2884 0001212 101.4759  96.9472 15.67984476  3330"}}, "geometry": {"type": "Point", "coordinates": [17.73962787972215, 10.528485361312594]}}]}